SNAP-3 JIMI             
1 40975U 15058M   26141.42607224  .00004253  00000+0  29979-3 0  9997
2 40975  64.7654 304.4239 0105172  66.4820 294.7306 15.01999836110202
PROPCUBE 1 (FLORA)      
1 40976U 15058N   26141.06439915  .00001982  00000+0  19514-3 0  9998
2 40976  64.7759  19.2869 0129835  71.5451 289.9722 14.89049298112223
SINOD-D 3               
1 40977U 15058P   26141.59791997  .00002826  00000+0  24627-3 0  9997
2 40977  64.7734 358.8365 0118332  68.7692 292.6012 14.93789857110784
HORYU-4                 
1 41340U 16012D   26141.39941902  .00152227  00000+0  75460-3 0  9996
2 41340  30.9883 273.2630 0004036  95.4050 264.7068 15.80437185566556
RAVAN                   
1 41849U 16067B   26141.63153612  .00030701  00000+0  51091-3 0  9996
2 41849  97.9920  28.1899 0007114  97.1288 263.0771 15.51970526523578
CELTEE 1                
1 41850U 16067C   26141.40580128  .00003341  00000+0  16163-3 0  9990
2 41850  98.0703   6.1473 0001371  54.8630 305.2731 15.19382960521818
OPTICUBE 04             
1 41851U 16067D   26141.56549514  .00001152  00000+0  76156-4 0  9999
2 41851  98.0724 352.4590 0015021 203.1082 156.9471 15.09530313521151
AEROCUBE 8D             
1 41852U 16067E   26141.56736456  .00005062  00000+0  21253-3 0  9994
2 41852  98.0713   9.7173 0002551 202.6137 157.4986 15.23975180522012
AEROCUBE 8C             
1 41853U 16067F   26141.20272165  .00004964  00000+0  20692-3 0  9994
2 41853  98.0585   6.5880 0006188 141.8657 218.3018 15.24211253521951
CORVUS BC2              
1 42846U 17042X   26141.42185681  .00001651  00000+0  11690-3 0  9999
2 42846  97.4041 303.8205 0012673 197.0527 163.0277 15.06096869483036
CORVUS BC1              
1 42847U 17042Y   26141.41951034  .00001893  00000+0  13283-3 0  9990
2 42847  97.4072 304.6146 0012119 173.2390 186.9003 15.06267692483061
MAKERSAT 0              
1 43016U 17073D   26141.13093424  .00017330  00000+0  48303-3 0  9996
2 43016  97.4655  23.4574 0110118  10.4350 349.9139 15.30862288462320
